{
  "links" : {
    "next" : "https://api.nasa.gov/neo/rest/v1/feed?start_date=2012-12-16&end_date=2012-12-16&detailed=true&api_key=t0TVs3DtDT2H8Oy2Zy8m2eVrNsAVKAexjcZXUckd",
    "prev" : "https://api.nasa.gov/neo/rest/v1/feed?start_date=2012-12-14&end_date=2012-12-14&detailed=true&api_key=t0TVs3DtDT2H8Oy2Zy8m2eVrNsAVKAexjcZXUckd",
    "self" : "https://api.nasa.gov/neo/rest/v1/feed?start_date=2012-12-15&end_date=2012-12-15&detailed=true&api_key=t0TVs3DtDT2H8Oy2Zy8m2eVrNsAVKAexjcZXUckd"
  },
  "element_count" : 12,
  "near_earth_objects" : {
    "2012-12-15" : [ {
      "links" : {
        "self" : "https://api.nasa.gov/neo/rest/v1/neo/3619724?api_key=t0TVs3DtDT2H8Oy2Zy8m2eVrNsAVKAexjcZXUckd"
      },
      "neo_reference_id" : "3619724",
      "name" : "(2012 XC55)",
      "nasa_jpl_url" : "http://ssd.jpl.nasa.gov/sbdb.cgi?sstr=3619724",
      "absolute_magnitude_h" : 19.3,
      "estimated_diameter" : {
        "kilometers" : {
          "estimated_diameter_min" : 0.3669061375,
          "estimated_diameter_max" : 0.8204270649
        },
        "meters" : {
          "estimated_diameter_min" : 366.9061375314,
          "estimated_diameter_max" : 820.4270648822
        },
        "miles" : {
          "estimated_diameter_min" : 0.2279848336,
          "estimated_diameter_max" : 0.5097895857
        },
        "feet" : {
          "estimated_diameter_min" : 1203.7603322587,
          "estimated_diameter_max" : 2691.6899315481
        }
      },
      "is_potentially_hazardous_asteroid" : false,
      "close_approach_data" : [ {
        "close_approach_date" : "2012-12-15",
        "epoch_date_close_approach" : 1355558400000,
        "relative_velocity" : {
          "kilometers_per_second" : "16.4542708163",
          "kilometers_per_hour" : "59235.3749387516",
          "miles_per_hour" : "36806.558389026"
        },
        "miss_distance" : {
          "astronomical" : "0.3620411411",
          "lunar" : "140.8339996338",
          "kilometers" : "54160584",
          "miles" : "33653828"
        },
        "orbiting_body" : "Earth"
      } ],
      "orbital_data" : {
        "orbit_id" : "22",
        "orbit_determination_date" : "2017-04-06 08:47:46",
        "orbit_uncertainty" : "2",
        "minimum_orbit_intersection" : ".259634",
        "jupiter_tisserand_invariant" : "3.404",
        "epoch_osculation" : "2458000.5",
        "eccentricity" : ".4299571222694775",
        "semi_major_axis" : "2.176538684916249",
        "inclination" : "29.82671361671433",
        "ascending_node_longitude" : "266.7543357628435",
        "orbital_period" : "1172.86496266618",
        "perihelion_distance" : "1.240720375441465",
        "perihelion_argument" : "173.4104060457109",
        "aphelion_distance" : "3.112356994391032",
        "perihelion_time" : "2457431.235260434346",
        "mean_anomaly" : "174.7305212168438",
        "mean_motion" : ".3069407062699195",
        "equinox" : "J2000"
      }
    }, {
      "links" : {
        "self" : "https://api.nasa.gov/neo/rest/v1/neo/3620677?api_key=t0TVs3DtDT2H8Oy2Zy8m2eVrNsAVKAexjcZXUckd"
      },
      "neo_reference_id" : "3620677",
      "name" : "(2012 XH112)",
      "nasa_jpl_url" : "http://ssd.jpl.nasa.gov/sbdb.cgi?sstr=3620677",
      "absolute_magnitude_h" : 26.9,
      "estimated_diameter" : {
        "kilometers" : {
          "estimated_diameter_min" : 0.0110803882,
          "estimated_diameter_max" : 0.0247765013
        },
        "meters" : {
          "estimated_diameter_min" : 11.0803882126,
          "estimated_diameter_max" : 24.7765012606
        },
        "miles" : {
          "estimated_diameter_min" : 0.0068850319,
          "estimated_diameter_max" : 0.0153953994
        },
        "feet" : {
          "estimated_diameter_min" : 36.3529808636,
          "estimated_diameter_max" : 81.2877363957
        }
      },
      "is_potentially_hazardous_asteroid" : false,
      "close_approach_data" : [ {
        "close_approach_date" : "2012-12-15",
        "epoch_date_close_approach" : 1355558400000,
        "relative_velocity" : {
          "kilometers_per_second" : "14.4036395008",
          "kilometers_per_hour" : "51853.1022029524",
          "miles_per_hour" : "32219.5011993845"
        },
        "miss_distance" : {
          "astronomical" : "0.0044173783",
          "lunar" : "1.7183601856",
          "kilometers" : "660830.4375",
          "miles" : "410620.96875"
        },
        "orbiting_body" : "Earth"
      } ],
      "orbital_data" : {
        "orbit_id" : "8",
        "orbit_determination_date" : "2017-04-06 08:47:39",
        "orbit_uncertainty" : "7",
        "minimum_orbit_intersection" : ".0013246",
        "jupiter_tisserand_invariant" : "3.483",
        "epoch_osculation" : "2458000.5",
        "eccentricity" : ".6137154901068901",
        "semi_major_axis" : "2.094877621474034",
        "inclination" : "4.005975343207345",
        "ascending_node_longitude" : "83.44685167626241",
        "orbital_period" : "1107.481328556726",
        "perihelion_distance" : ".8092187752971413",
        "perihelion_argument" : "58.7683539983915",
        "aphelion_distance" : "3.380536467650928",
        "perihelion_time" : "2458530.989044904313",
        "mean_anomaly" : "187.5582158893519",
        "mean_motion" : ".3250619136569584",
        "equinox" : "J2000"
      }
    }, {
      "links" : {
        "self" : "https://api.nasa.gov/neo/rest/v1/neo/3621024?api_key=t0TVs3DtDT2H8Oy2Zy8m2eVrNsAVKAexjcZXUckd"
      },
      "neo_reference_id" : "3621024",
      "name" : "(2012 XP134)",
      "nasa_jpl_url" : "http://ssd.jpl.nasa.gov/sbdb.cgi?sstr=3621024",
      "absolute_magnitude_h" : 27.6,
      "estimated_diameter" : {
        "kilometers" : {
          "estimated_diameter_min" : 0.0080270317,
          "estimated_diameter_max" : 0.0179489885
        },
        "meters" : {
          "estimated_diameter_min" : 8.0270316728,
          "estimated_diameter_max" : 17.948988478
        },
        "miles" : {
          "estimated_diameter_min" : 0.0049877647,
          "estimated_diameter_max" : 0.0111529809
        },
        "feet" : {
          "estimated_diameter_min" : 26.3354065935,
          "estimated_diameter_max" : 58.8877593581
        }
      },
      "is_potentially_hazardous_asteroid" : false,
      "close_approach_data" : [ {
        "close_approach_date" : "2012-12-15",
        "epoch_date_close_approach" : 1355558400000,
        "relative_velocity" : {
          "kilometers_per_second" : "8.836703655",
          "kilometers_per_hour" : "31812.1331579848",
          "miles_per_hour" : "19766.8224058601"
        },
        "miss_distance" : {
          "astronomical" : "0.0031313707",
          "lunar" : "1.2181031704",
          "kilometers" : "468446.40625",
          "miles" : "291079.09375"
        },
        "orbiting_body" : "Earth"
      } ],
      "orbital_data" : {
        "orbit_id" : "6",
        "orbit_determination_date" : "2017-04-06 08:47:34",
        "orbit_uncertainty" : "7",
        "minimum_orbit_intersection" : ".00312187",
        "jupiter_tisserand_invariant" : "5.222",
        "epoch_osculation" : "2458000.5",
        "eccentricity" : ".3079951836561819",
        "semi_major_axis" : "1.207304837962411",
        "inclination" : "5.636515089362908",
        "ascending_node_longitude" : "262.4226014278852",
        "orbital_period" : "484.5335327361991",
        "perihelion_distance" : ".8354607626651813",
        "perihelion_argument" : "250.7392970922153",
        "aphelion_distance" : "1.579148913259641",
        "perihelion_time" : "2457784.367710328637",
        "mean_anomaly" : "160.582537687959",
        "mean_motion" : ".7429826331462583",
        "equinox" : "J2000"
      }
    } ]
  }
}